STARLINK-1172           
1 45074U 20006AG  26068.70759554 -.00001306  00000+0 -31999-4 0  9998
2 45074  53.1578 257.7398 0001496  86.4728 273.6444 15.30183132336871
ASTROCAST-0403          
1 55111U 23001DG  26068.82333059  .00013959  00000+0  51317-3 0  9990
2 55111  97.5604 161.3228 0004771 338.0704  22.0330 15.28004949129377
